{"type": "FeatureCollection", "features": [{"type": "Feature", "properties": {"norad_id": 24876, "name": "GPS BIIR-2  (PRN 13)", "group": "gnss", "lat": -3.4865031676076432, "lon": 103.652571268009, "alt_km": 20057.221439031553, "timestamp": "2025-12-08T17:43:05.170732+00:00", "meta": {"OBJECT_NAME": "GPS BIIR-2  (PRN 13)", "OBJECT_ID": "1997-035A", "EPOCH": "2025-12-08T05:53:26.454912", "MEAN_MOTION": 2.00563507, "ECCENTRICITY": 0.00967273, "INCLINATION": 55.8931, "RA_OF_ASC_NODE": 106.0447, "ARG_OF_PERICENTER": 57.0161, "MEAN_ANOMALY": 303.881, "EPHEMERIS_TYPE": 0, "CLASSIFICATION_TYPE": "U", "NORAD_CAT_ID": 24876, "ELEMENT_SET_NO": 999, "REV_AT_EPOCH": 20812, "BSTAR": 0, "MEAN_MOTION_DOT": 1.5e-07, "MEAN_MOTION_DDOT": 0}, "tle": {"line1": "1 24876U 97035A   25342.24544508  .00000015  00000+0  00000+0 0  9993", "line2": "2 24876  55.8931 106.0447 0096727  57.0161 303.8810  2.00563507208127"}}, "geometry": {"type": "Point", "coordinates": [103.652571268009, -3.4865031676076432]}}, {"type": "Feature", "properties": {"norad_id": 26360, "name": "GPS BIIR-4  (PRN 20)", "group": "gnss", "lat": 55.00815171331368, "lon": 114.19909218885496, "alt_km": 20267.604327592424, "timestamp": "2025-12-08T17:43:05.170782+00:00", "meta": {"OBJECT_NAME": "GPS BIIR-4  (PRN 20)", "OBJECT_ID": "2000-025A", "EPOCH": "2025-12-08T05:53:38.603616", "MEAN_MOTION": 2.00567966, "ECCENTRICITY": 0.00388423, "INCLINATION": 55.0425, "RA_OF_ASC_NODE": 27.0197, "ARG_OF_PERICENTER": 241.5588, "MEAN_ANOMALY": 211.3182, "EPHEMERIS_TYPE": 0, "CLASSIFICATION_TYPE": "U", "NORAD_CAT_ID": 26360, "ELEMENT_SET_NO": 999, "REV_AT_EPOCH": 18744, "BSTAR": 0, "MEAN_MOTION_DOT": -8.7e-07, "MEAN_MOTION_DDOT": 0}, "tle": {"line1": "1 26360U 00025A   25342.24558569 -.00000087  00000+0  00000+0 0  9998", "line2": "2 26360  55.0425  27.0197 0038842 241.5588 211.3182  2.00567966187447"}}, "geometry": {"type": "Point", "coordinates": [114.19909218885496, 55.00815171331368]}}, {"type": "Feature", "properties": {"norad_id": 26407, "name": "GPS BIIR-5  (PRN 22)", "group": "gnss", "lat": -51.16477387773937, "lon": 161.9017343921547, "alt_km": 19862.24169545555, "timestamp": "2025-12-08T17:43:05.170802+00:00", "meta": {"OBJECT_NAME": "GPS BIIR-5  (PRN 22)", "OBJECT_ID": "2000-040A", "EPOCH": "2025-12-08T00:47:10.344768", "MEAN_MOTION": 2.00567815, "ECCENTRICITY": 0.01262679, "INCLINATION": 54.8919, "RA_OF_ASC_NODE": 222.7562, "ARG_OF_PERICENTER": 301.7217, "MEAN_ANOMALY": 197.0667, "EPHEMERIS_TYPE": 0, "CLASSIFICATION_TYPE": "U", "NORAD_CAT_ID": 26407, "ELEMENT_SET_NO": 999, "REV_AT_EPOCH": 18611, "BSTAR": 0, "MEAN_MOTION_DOT": 2e-07, "MEAN_MOTION_DDOT": 0}, "tle": {"line1": "1 26407U 00040A   25342.03275862  .00000020  00000+0  00000+0 0  9992", "line2": "2 26407  54.8919 222.7562 0126267 301.7217 197.0667  2.00567815186115"}}, "geometry": {"type": "Point", "coordinates": [161.9017343921547, -51.16477387773937]}}, {"type": "Feature", "properties": {"norad_id": 27663, "name": "GPS BIIR-8  (PRN 16)", "group": "gnss", "lat": 47.53664465739302, "lon": -87.34795307598328, "alt_km": 19793.581642171524, "timestamp": "2025-12-08T17:43:05.170818+00:00", "meta": {"OBJECT_NAME": "GPS BIIR-8  (PRN 16)", "OBJECT_ID": "2003-005A", "EPOCH": "2025-12-07T16:01:06.566304", "MEAN_MOTION": 2.00571101, "ECCENTRICITY": 0.01472532, "INCLINATION": 54.9246, "RA_OF_ASC_NODE": 222.5801, "ARG_OF_PERICENTER": 51.7313, "MEAN_ANOMALY": 319.0971, "EPHEMERIS_TYPE": 0, "CLASSIFICATION_TYPE": "U", "NORAD_CAT_ID": 27663, "ELEMENT_SET_NO": 999, "REV_AT_EPOCH": 16747, "BSTAR": 0, "MEAN_MOTION_DOT": 2.5e-07, "MEAN_MOTION_DDOT": 0}, "tle": {"line1": "1 27663U 03005A   25341.66743711  .00000025  00000+0  00000+0 0  9997", "line2": "2 27663  54.9246 222.5801 0147253  51.7313 319.0971  2.00571101167470"}}, "geometry": {"type": "Point", "coordinates": [-87.34795307598328, 47.53664465739302]}}, {"type": "Feature", "properties": {"norad_id": 28190, "name": "GPS BIIR-11 (PRN 19)", "group": "gnss", "lat": -34.68473828406514, "lon": 132.34134610678674, "alt_km": 20025.50339687427, "timestamp": "2025-12-08T17:43:05.170831+00:00", "meta": {"OBJECT_NAME": "GPS BIIR-11 (PRN 19)", "OBJECT_ID": "2004-009A", "EPOCH": "2025-12-08T00:54:44.996256", "MEAN_MOTION": 2.00560848, "ECCENTRICITY": 0.01082887, "INCLINATION": 54.99, "RA_OF_ASC_NODE": 283.4084, "ARG_OF_PERICENTER": 167.5613, "MEAN_ANOMALY": 269.7716, "EPHEMERIS_TYPE": 0, "CLASSIFICATION_TYPE": "U", "NORAD_CAT_ID": 28190, "ELEMENT_SET_NO": 999, "REV_AT_EPOCH": 15911, "BSTAR": 0, "MEAN_MOTION_DOT": -4.5e-07, "MEAN_MOTION_DDOT": 0}, "tle": {"line1": "1 28190U 04009A   25342.03802079 -.00000045  00000+0  00000+0 0  9996", "line2": "2 28190  54.9900 283.4084 0108288 167.5613 269.7716  2.00560848159112"}}, "geometry": {"type": "Point", "coordinates": [132.34134610678674, -34.68473828406514]}}, {"type": "Feature", "properties": {"norad_id": 28474, "name": "GPS BIIR-13 (PRN 02)", "group": "gnss", "lat": -53.446745239113234, "lon": -96.899808593843, "alt_km": 19781.160231816386, "timestamp": "2025-12-08T17:43:05.170845+00:00", "meta": {"OBJECT_NAME": "GPS BIIR-13 (PRN 02)", "OBJECT_ID": "2004-045A", "EPOCH": "2025-12-07T20:16:35.351904", "MEAN_MOTION": 2.00569143, "ECCENTRICITY": 0.0170668, "INCLINATION": 55.2431, "RA_OF_ASC_NODE": 332.6027, "ARG_OF_PERICENTER": 309.0357, "MEAN_ANOMALY": 48.7901, "EPHEMERIS_TYPE": 0, "CLASSIFICATION_TYPE": "U", "NORAD_CAT_ID": 28474, "ELEMENT_SET_NO": 999, "REV_AT_EPOCH": 15458, "BSTAR": 0, "MEAN_MOTION_DOT": -8.2e-07, "MEAN_MOTION_DDOT": 0}, "tle": {"line1": "1 28474U 04045A   25341.84485361 -.00000082  00000+0  00000+0 0  9991", "line2": "2 28474  55.2431 332.6027 0170668 309.0357  48.7901  2.00569143154587"}}, "geometry": {"type": "Point", "coordinates": [-96.899808593843, -53.446745239113234]}}, {"type": "Feature", "properties": {"norad_id": 28874, "name": "GPS BIIRM-1 (PRN 17)", "group": "gnss", "lat": -45.511659589521244, "lon": 146.1972567302472, "alt_km": 19972.34951037413, "timestamp": "2025-12-08T17:43:05.170858+00:00", "meta": {"OBJECT_NAME": "GPS BIIRM-1 (PRN 17)", "OBJECT_ID": "2005-038A", "EPOCH": "2025-12-08T01:59:22.553088", "MEAN_MOTION": 2.00578599, "ECCENTRICITY": 0.01317899, "INCLINATION": 55.0361, "RA_OF_ASC_NODE": 280.8884, "ARG_OF_PERICENTER": 293.3737, "MEAN_ANOMALY": 195.059, "EPHEMERIS_TYPE": 0, "CLASSIFICATION_TYPE": "U", "NORAD_CAT_ID": 28874, "ELEMENT_SET_NO": 999, "REV_AT_EPOCH": 14800, "BSTAR": 0, "MEAN_MOTION_DOT": -4.3e-07, "MEAN_MOTION_DDOT": 0}, "tle": {"line1": "1 28874U 05038A   25342.08289992 -.00000043  00000+0  00000+0 0  9994", "line2": "2 28874  55.0361 280.8884 0131789 293.3737 195.0590  2.00578599148009"}}, "geometry": {"type": "Point", "coordinates": [146.1972567302472, -45.511659589521244]}}, {"type": "Feature", "properties": {"norad_id": 28899, "name": "INMARSAT 4-F2 (SOUTHPAN/PRN 122)", "group": "gnss", "lat": 4.828120384188033, "lon": 126.96204234248646, "alt_km": 35795.07440396372, "timestamp": "2025-12-08T17:43:05.170874+00:00", "meta": {"OBJECT_NAME": "INMARSAT 4-F2 (SOUTHPAN/PRN 122)", "OBJECT_ID": "2005-044A", "EPOCH": "2025-12-08T03:45:51.585120", "MEAN_MOTION": 1.00271124, "ECCENTRICITY": 0.00032954, "INCLINATION": 4.8467, "RA_OF_ASC_NODE": 43.6777, "ARG_OF_PERICENTER": 215.509, "MEAN_ANOMALY": 17.949, "EPHEMERIS_TYPE": 0, "CLASSIFICATION_TYPE": "U", "NORAD_CAT_ID": 28899, "ELEMENT_SET_NO": 999, "REV_AT_EPOCH": 7360, "BSTAR": 0, "MEAN_MOTION_DOT": -2.6e-06, "MEAN_MOTION_DDOT": 0}, "tle": {"line1": "1 28899U 05044A   25342.15684705 -.00000260  00000+0  00000+0 0  9998", "line2": "2 28899   4.8467  43.6777 0003295 215.5090  17.9490  1.00271124 73606"}}, "geometry": {"type": "Point", "coordinates": [126.96204234248646, 4.828120384188033]}}, {"type": "Feature", "properties": {"norad_id": 29486, "name": "GPS BIIRM-2 (PRN 31)", "group": "gnss", "lat": 26.835269162607762, "lon": -42.12451672494053, "alt_km": 20199.06826597783, "timestamp": "2025-12-08T17:43:05.170899+00:00", "meta": {"OBJECT_NAME": "GPS BIIRM-2 (PRN 31)", "OBJECT_ID": "2006-042A", "EPOCH": "2025-12-08T04:03:19.247328", "MEAN_MOTION": 2.00554246, "ECCENTRICITY": 0.01073661, "INCLINATION": 54.6935, "RA_OF_ASC_NODE": 158.9221, "ARG_OF_PERICENTER": 51.8493, "MEAN_ANOMALY": 42.2543, "EPHEMERIS_TYPE": 0, "CLASSIFICATION_TYPE": "U", "NORAD_CAT_ID": 29486, "ELEMENT_SET_NO": 999, "REV_AT_EPOCH": 14056, "BSTAR": 0, "MEAN_MOTION_DOT": 5.8e-07, "MEAN_MOTION_DDOT": 0}, "tle": {"line1": "1 29486U 06042A   25342.16897277  .00000058  00000+0  00000+0 0  9995", "line2": "2 29486  54.6935 158.9221 0107366  51.8493  42.2543  2.00554246140568"}}, "geometry": {"type": "Point", "coordinates": [-42.12451672494053, 26.835269162607762]}}, {"type": "Feature", "properties": {"norad_id": 29601, "name": "GPS BIIRM-3 (PRN 12)", "group": "gnss", "lat": -18.974376491603653, "lon": 55.5119517072253, "alt_km": 20284.355991077467, "timestamp": "2025-12-08T17:43:05.170918+00:00", "meta": {"OBJECT_NAME": "GPS BIIRM-3 (PRN 12)", "OBJECT_ID": "2006-052A", "EPOCH": "2025-12-07T23:03:27.935136", "MEAN_MOTION": 2.00573134, "ECCENTRICITY": 0.00876554, "INCLINATION": 54.9714, "RA_OF_ASC_NODE": 221.5879, "ARG_OF_PERICENTER": 87.3887, "MEAN_ANOMALY": 273.7008, "EPHEMERIS_TYPE": 0, "CLASSIFICATION_TYPE": "U", "NORAD_CAT_ID": 29601, "ELEMENT_SET_NO": 999, "REV_AT_EPOCH": 13957, "BSTAR": 0, "MEAN_MOTION_DOT": 2.2e-07, "MEAN_MOTION_DDOT": 0}, "tle": {"line1": "1 29601U 06052A   25341.96073999  .00000022  00000+0  00000+0 0  9990", "line2": "2 29601  54.9714 221.5879 0087655  87.3887 273.7008  2.00573134139573"}}, "geometry": {"type": "Point", "coordinates": [55.5119517072253, -18.974376491603653]}}]}